[
    {
        "Altitude(m)": 604221.2288852693,
        "Argument of Periapsis(deg)": 0.0,
        "Eccentricity": 0.0,
        "Inclination(deg)": 60.0,
        "Latitude(deg)": 14.117385900142725,
        "Longitude(deg)": 88.33414508503424,
        "Mean Anomaly(deg)": 16.363600000000012,
        "RAAN(deg)": 180.0,
        "Satellite Name": "Test1 793",
        "Satellite Number": 793,
        "Semi-Major Axis(m)": 6980739.136638005,
        "Time(s)": 0
    },
    {
        "Altitude(m)": 604235.3706789783,
        "Argument of Periapsis(deg)": 0.00010418945913296404,
        "Eccentricity": 0.0,
        "Inclination(deg)": 60.0,
        "Latitude(deg)": 14.651782830976243,
        "Longitude(deg)": 88.62259186710583,
        "Mean Anomaly(deg)": 16.983706145461838,
        "RAAN(deg)": 179.99957995086024,
        "Satellite Name": "Test1 793",
        "Satellite Number": 793,
        "Semi-Major Axis(m)": 6980739.136638005,
        "Time(s)": 10
    }
]